[{"OBJECT_NAME":"STARLINK-32761","OBJECT_ID":"2025-014Q","EPOCH":"2026-03-09T06:14:54.326400","MEAN_MOTION":15.27586993,"ECCENTRICITY":0.00023423,"INCLINATION":42.9943,"RA_OF_ASC_NODE":160.1054,"ARG_OF_PERICENTER":141.622,"MEAN_ANOMALY":218.4799,"EPHEMERIS_TYPE":0,"CLASSIFICATION_TYPE":"U","NORAD_CAT_ID":62749,"ELEMENT_SET_NO":999,"REV_AT_EPOCH":6315,"BSTAR":0.00094873529,"MEAN_MOTION_DOT":0.00025943,"MEAN_MOTION_DDOT":0},{"OBJECT_NAME":"ELEKTRON 1 DEB","OBJECT_ID":"1964-006C","EPOCH":"2026-03-09T22:10:00.918336","MEAN_MOTION":12.47513662,"ECCENTRICITY":0.13967706,"INCLINATION":60.7461,"RA_OF_ASC_NODE":226.3873,"ARG_OF_PERICENTER":16.6237,"MEAN_ANOMALY":347.6075,"EPHEMERIS_TYPE":0,"CLASSIFICATION_TYPE":"U","NORAD_CAT_ID":750,"ELEMENT_SET_NO":999,"REV_AT_EPOCH":83425,"BSTAR":0.0014750203,"MEAN_MOTION_DOT":0.00014937,"MEAN_MOTION_DDOT":0}]
